{"type":"FeatureCollection","features":[{"type":"Feature","geometry":{"type":"Point","coordinates":[24.0149589,49.8350313]},"properties":{"moid":"2372649916309702611","id":1,"geom":{"type":"Point","coordinates":[24.0149589,49.8350313]},"name":"Дуб великоплідний","lat_name":"Quercus macrocarpa","status":"Статус ботанічної пам’ятки природи місцевого значення надано ухвалою ЛМР від 21.04.2016 № 402,  рішенням Львівської обласної ради від 20.03.2018  № 649 ","balance_holder":"Національний університет \"Львівська політехніка\"","characteristic":"Діаметр стовбура: 151 см. Висота: 30 м. Вік: понад 170 років. Стан: добрий","street":"Бандери С.","housenumber":12,"photo1":"https://doc-08-0g-mymaps.googleusercontent.com/untrusted/hostedimage/0bakdeguh8jgmpljlouo0s7gio/osue0getdi7q1q8b4mmmvnr7h0/1595231452750/T7JWC7chyogg85C53AUnNbKiMubo-dAb/10034506465722949273/5AF2TALoFCn98w15IX-yEXUon_xhsCHEgB_9TxjTiT0esxkXKxPit_lhnZXBavJRAcAuvEQ35KKXC6o_sx1dKCLYNaReJwDmPuz3V7IVNFmYs8oGPFpMhQ1w-zgTxvhTec9rYUyD8MTRyLacTOKV_RN6ytR7MW1loeL0AyaoJSbOpRl_G56XASBH64EBVc3tipw_OJ2RjE0C8NSlf-BWMqzSvIXNT1ljWzyGp7-DbQmxmhIMHzA9L_z6Unq08H3V5xpaReJPK3z394fkuTvR_ZNDhOzPs7sLfZg?session=0&fife","photo2":"https://doc-10-0g-mymaps.googleusercontent.com/untrusted/hostedimage/0bakdeguh8jgmpljlouo0s7gio/0gci9gkfjrf5v7jfl54g3eufak/1595231452750/T7JWC7chyogg85C53AUnNbKiMubo-dAb/10034506465722949273/5AF2TALpJicsP8E2vXDD-h8DUneXE6jzAdnNovZQwiyixDkSS5ZBVjo98Zq1_CSHEdfBSJVPg-ShUlTM3cHGR7HNuUTDnY3akXRkdMoafliRMtnYdZJCoLoDfHQtI02AyRH4ljw0At8qwo2ATltJNs-L7KRJt1bD5EmkwHR9cMnSbC95lQ3Z8WG0b_vVdC7mbG7AXnQxvQh3EJVp-D3BwUnOZNXL3hSU45BQacdhpVLsn2Na4o0Jph-EegrUA5m_eukGacXmXJAVGXkafl-8tZLbVcH9pvTOK2g?session=0&fife\"","x":24.0149589,"y":49.8350313,"editor_id":null,"uid":null,"editor_date":null,"cdate":"2020-08-10T15:18:52"}},{"type":"Feature","geometry":{"type":"Point","coordinates":[24.0156257,49.8350356]},"properties":{"moid":"2372649916318091220","id":2,"geom":{"type":"Point","coordinates":[24.0156257,49.8350356]},"name":"Магнолія кобус","lat_name":"Magnolia kobus","status":"Статус ботанічної пам’ятки природи місцевого значення надано рішенням Львівської обласної ради від 1984 р.","balance_holder":"Національний університет \"Львівська політехніка\"","characteristic":"Діаметр стовбура: 32 см. Висота: 12 м. Вік: більше 70 років. Стан: незадовільний","street":"Бандери С.","housenumber":12,"photo1":"https://doc-0o-0g-mymaps.googleusercontent.com/untrusted/hostedimage/0bakdeguh8jgmpljlouo0s7gio/ur0ockkpr54kp9q13jta49l9o4/1595231452750/T7JWC7chyogg85C53AUnNbKiMubo-dAb/10034506465722949273/5AF2TALqkvKahtv7NnTqfBwt-0P-qjt7mxcegUditOeJsbaXXd9TCHR8xJr9hPXMCP-_Gi5XOLlczz02QWQVpeyszNgG2KI7IeHr7Xa08zZnfqRACwBGAtdg7uzaqXGK7fExexuUQ5mfWcByNIHgrJ0RjtT6FwWDJR-pL39WifCGSAP-Gm3FGcP7599w5uJK9YxCLP_lEs2njL-3D2bojsMlMps_x7Rr_hunebbdypBcWKnCah6otPC_YT8kwtsUq5dO8-ijHeRyoZe32uGc-ZsG1ELLwW4ab5A?session=0&fife","photo2":"https://doc-0o-0g-mymaps.googleusercontent.com/untrusted/hostedimage/0bakdeguh8jgmpljlouo0s7gio/d60osdtkbcomphgsvnb0bbjav0/1595231452750/T7JWC7chyogg85C53AUnNbKiMubo-dAb/10034506465722949273/5AF2TALrb3DLv8UWxQPpd6GEdflxPlg9iMZ9WoyI8uAr0S3kB3HZSbaYP18BMKfh5UhA46-Y7Wy6xZnds-MOowIOFnrGsk3VKPayuWI9aBkTf1sHBVzSNxl2fQy_Hmny625LnobmZlwzeEhDqPc4PvWdyXxNKijceuhelLyWiVhwahMMA42wsW0Yf9o6c8ajvDjFlDc2zL0I1fJvO2krxCfpDOnWkmkRjTY_CXePMioy8JHMQMA7UOOtGIX-9M_SMnp2_z4YRy0wFWjpnPKbAtfNk-rxzG0zZtQ?session=0&fife","x":24.0156257,"y":49.8350356,"editor_id":null,"uid":null,"editor_date":null,"cdate":"2020-08-10T15:18:52"}},{"type":"Feature","geometry":{"type":"Point","coordinates":[24.0141462,49.8374443]},"properties":{"moid":"2372649916326479829","id":3,"geom":{"type":"Point","coordinates":[24.0141462,49.8374443]},"name":"Бук східний ","lat_name":"Fagus orientalis","status":"Статус ботанічної пам’ятки природи місцевого значення надано ухвалою Львівської міської від 21.04.2016 № 402,  рішенням Львівської обласної ради від 20.03.2018 № 649","balance_holder":"Галицька районна адміністрація","characteristic":"Діаметр стовбура: 65 см. Висота: 18 м. Вік: 100 років. Стан: незадовільний","street":"Святого Юра, пл.","housenumber":null,"photo1":"https://doc-0s-0g-mymaps.googleusercontent.com/untrusted/hostedimage/0bakdeguh8jgmpljlouo0s7gio/ar8a2eemctn61e1iuitncvb63o/1595231452750/T7JWC7chyogg85C53AUnNbKiMubo-dAb/10034506465722949273/5AF2TALr2crfpyBYRw5YX8kQk-eyJUHlJW4VwUOHXrdleFTlWYPRAeA8aoUnF87jMG7W6MhvgI76BL4H4P_74h8HgrHuDraCsGjfJXa3uyDrUueecmegCogUDOwcOc6BZyJqnySdvP1dCfEgD8KreKiMltD-kKHKCpnR6DHrysKQmp3A9g4g3oI8G9nON4oWXHQ9hacUevbK3_HZhcEzxg7eqK-QyIJFawWMluqiWaiyDQhnkSPs7scvCGjx9yVz7_piemi1ghnqQaTl4_CJvsq0ScxstmBlLuQ?session=0&fife","photo2":"https://doc-0g-0g-mymaps.googleusercontent.com/untrusted/hostedimage/0bakdeguh8jgmpljlouo0s7gio/5h7lstd6ljuqvik22gvttfiru8/1595231452750/T7JWC7chyogg85C53AUnNbKiMubo-dAb/10034506465722949273/5AF2TALoQ8pkdA-NAtFo5KR-8GIIFlDk3NsYyQXfpdvYLoqeX2ERa9xkt5Gs5yFAwCGpd_osGT5FqLhGCCYp53aaHppmYEBxyj8rdjsxThOqNfSSj9TkKKPaujlwdZFHtiHF7l5WUuLdVSxPebiB0DtFUBcfTuK0ps5KCyQ6kp4oDNjaaXO_cEVDMfG_OGEhBjs4QXl69_sodJltgOB1swOjhkdwlD9Q50nu-6GZ0ep-uU65DPy1xMZO9qrcD9pKFTljGy9Egjxru-wnV-dSuivMnk1NTC5ue_Q?session=0&fife","x":24.0141462,"y":49.8374443,"editor_id":null,"uid":null,"editor_date":null,"cdate":"2020-08-10T15:18:52"}},{"type":"Feature","geometry":{"type":"Point","coordinates":[24.0226232,49.8397931]},"properties":{"moid":"2372649916326479830","id":4,"geom":{"type":"Point","coordinates":[24.0226232,49.8397931]},"name":"Метасеквойя","lat_name":"Metasequoia","status":"Статус ботанічної пам’ятки природи місцевого значення надано ухвалою Львівської міської ради від 21.04.2016 № 402,  рішенням Львівської обласної ради від 20.03.2018 № 649","balance_holder":"Львівський національний університет ім. Івана Франка","characteristic":"Діаметр стовбура: 46 см. Висота: 25 м. Вік: більше 60 років. Стан: задовільний","street":"Університетська","housenumber":1,"photo1":"https://doc-0g-0g-mymaps.googleusercontent.com/untrusted/hostedimage/0bakdeguh8jgmpljlouo0s7gio/229m4q4o4u8863oid6kmscoou8/1595231452750/T7JWC7chyogg85C53AUnNbKiMubo-dAb/10034506465722949273/5AF2TALrBjq1SAYv2jvZEBaMkTrs9DUn3BGoieTprs5rlIiS_4ToZNma7FpKMRU71_BLjiFHv0HNx2df8zh3iqqfKoASKdKygWosZXU6kfgX-G5IJvuvL21LoEgFJr_0cOXVdpcqs1OpzOWhw05sPjnF60tQumxVeSJuMJyT1eRIll2pLyzkiJZP2-DzhueeL82P5UMxHAmVQkPQ7iuLJxcxSyrO8VopDldMmhnHpRyECeZCl6OCqflD4ScD7lJGbr0Yse42xGXEkiY0FSU14aK0IUUH0c2FhzQ?session=0&fife","photo2":null,"x":24.0226232,"y":49.8397931,"editor_id":null,"uid":null,"editor_date":null,"cdate":"2020-08-10T15:18:52"}},{"type":"Feature","geometry":{"type":"Point","coordinates":[24.0218712,49.8362707]},"properties":{"moid":"2372649916326479831","id":5,"geom":{"type":"Point","coordinates":[24.0218712,49.8362707]},"name":"Гінкго дволопатеве ","lat_name":"Ginkgo biloba","status":"Статус ботанічної пам’ятки природи місцевого значення надано ухвалою Львівської міської ради від 21.04.2016 № 402, рішенням Львівської обласної ради від 20.03.2018 № 649","balance_holder":"Середня загальноосвітня школа №9 м. Львова,  управління освіти ЛМР","characteristic":" Діаметр стовбура: 38/45/87 см. Висота: 22 м. Вік: 120 років. Стан: задовільний","street":"Коперника М.","housenumber":40,"photo1":"https://doc-14-0g-mymaps.googleusercontent.com/untrusted/hostedimage/0bakdeguh8jgmpljlouo0s7gio/pp7au9h0tr26tn0d9coo7oobrk/1595231452750/T7JWC7chyogg85C53AUnNbKiMubo-dAb/10034506465722949273/5AF2TALr22tIx0Did2l1O06yi-9i5k1808cq4R5AJKeaRq0aQBjeEZX6IrUcBUMinM92FdjWOVX_EtfJW2YukeLu05DAbn5u8rF6Uy0OrhPyXsv7NpLrUbJNQ3ipzeqr6e7Aqe709_6mZdRvVp7iALMzPnUyj6jaQmE-29KoJWeRlp5e4uJCgcPZtfYmfIJRMOW9HlI6WRmeenx6TWfKvab0epQmISIzipCFTLTUNly236NUkD1rmtLJTTC5A4KSxZ5Km7MofQbk8CuzJwTRuwENjKu3jzZBJ1g?session=0&fife","photo2":null,"x":24.0218712,"y":49.8362707,"editor_id":null,"uid":null,"editor_date":null,"cdate":"2020-08-10T15:18:52"}},{"type":"Feature","geometry":{"type":"Point","coordinates":[24.0331729,49.824762]},"properties":{"moid":"2372649916326479832","id":6,"geom":{"type":"Point","coordinates":[24.0331729,49.824762]},"name":"Гінкго дволопатеве ","lat_name":"Ginkgo biloba","status":"Статус ботанічної пам’ятки природи місцевого значення надано рішенням Львівської обласної ради від 09.10.1984 № 495, ухвалою Львівської міської від 21.04.2016 № 402","balance_holder":"Галицька районна адміністрація","characteristic":"Діаметр стовбура: 48 см. Висота: 21 м. Вік: понад 100 років. Стан: задовільний","street":"Франка І.","housenumber":122,"photo1":"https://doc-0g-0g-mymaps.googleusercontent.com/untrusted/hostedimage/0bakdeguh8jgmpljlouo0s7gio/5vef2rfsvcfumu8f4fm5qpei7c/1595231452750/T7JWC7chyogg85C53AUnNbKiMubo-dAb/10034506465722949273/5AF2TALoXo_MMEJdGlN1qfRcUnzpq7jjeCEeR3P27z4c1Pwu2rY4HzQP0-YkDlrdSLPFtFJCrCRKU5Nqw0VKaAqPEzgkv0VTOM-28pDv3-Nci1mj7IrEribE9b6aJ-e9kNKz2k6Bogau9MJ2vYsNylvL0uvXnIgTBnUdlW1cEalNUQN8F2tpdh7nsr4luP-ayhDPbpCaNlQkdonIh_XyaI53a2V5xbNtwftWfBZRDIqLeqbSsoJaiuK2dWI18lb94lazSfxDS_iC4gBQBl-eHHSZ5YVxCvmr2EQ?session=0&fife","photo2":"https://doc-0o-0g-mymaps.googleusercontent.com/untrusted/hostedimage/0bakdeguh8jgmpljlouo0s7gio/8sif6kems8g34uj7jqapk1supg/1595231452750/T7JWC7chyogg85C53AUnNbKiMubo-dAb/10034506465722949273/5AF2TALogSkbeFL5HoYhLa43LJ1iqQnhArRyLwzMAGS8t_0BGe-e7gao8__7JkwbXXtVH9U4nEIqmueDDYAfRdtpZKjUc-8TaZO3RmIdgbxTFPa-9xKgVDp_oiaFtlWd296SzQStOtJJdzquGpRgBtCvOpEV0MQPvvo6ZffJgty7Kgv2nT8g7C1gc3LHcfiyJ3Z4puArGe7XW43VP_lvFUSP-juu0k4u7rZ6saU1yZ83fjGGYf7kDs29g-TcF2kBdIwZaxkywmI-ZvuQZExyvrF70H-ssOQlcwA?session=0&fife","x":24.0331729,"y":49.824762,"editor_id":null,"uid":null,"editor_date":null,"cdate":"2020-08-10T15:18:52"}},{"type":"Feature","geometry":{"type":"Point","coordinates":[24.0317845,49.8345133]},"properties":{"moid":"2372649916326479833","id":7,"geom":{"type":"Point","coordinates":[24.0317845,49.8345133]},"name":"Липа серцелиста ","lat_name":"Tilia cordata","status":"Статус ботанічної пам’ятки природи місцевого значення надано ухвалою Львівської міської від 19.04.2018 № 3294, рішенням Львівської обласної ради від 25.10.2018 № 760","balance_holder":"Галицька районна адміністрація","characteristic":"Діаметр стовбура: 112 см. Висота: 18 м. Вік: понад 150 років. Стан: задовільний","street":"Грушевського М.","housenumber":4,"photo1":"https://doc-0c-0g-mymaps.googleusercontent.com/untrusted/hostedimage/0bakdeguh8jgmpljlouo0s7gio/sok5s88ihim5t7iq387o3lv6o8/1595231452750/T7JWC7chyogg85C53AUnNbKiMubo-dAb/10034506465722949273/5AF2TALqes8YFAzw8ltKBQyWeZR5IcyNKm_JhU63Nz34Vtsi9Xud38MYiqfxyYRUd2z4H3PuATlf9fCGb5k7S8zOtEU8LhGTl8k0AKkqZl2FkKB67PbDAN1b7fOzPW0fAuMYUuNT8A4RaiR6LOw4Tt40IF6jGSRIKlIl1MN5zI0h5jnsQfLgLRwc3Hc08ywp9lLA1_lT34-jEC5edR35pbMkbkS0o5am3WORwg73pG0WixvQMpit6onyO11bd2_W6AaUFpaogSovafQC8jMM19n2z_mReZMt2PQ?session=0&fife","photo2":null,"x":24.0317845,"y":49.8345133,"editor_id":null,"uid":null,"editor_date":null,"cdate":"2020-08-10T15:18:52"}},{"type":"Feature","geometry":{"type":"Point","coordinates":[24.0371867,49.8226159]},"properties":{"moid":"2372649916326479834","id":8,"geom":{"type":"Point","coordinates":[24.0371867,49.8226159]},"name":"Тсуга канадська ","lat_name":"Tsuga canadensis","status":"Статус ботанічної пам’ятки природи місцевого значення надано рішенням Львівської міської ради від 09.10.1984 № 495","balance_holder":"комунальне некомерційне підприємство \"4-а міська клінічна лікарня м. Львова\"","characteristic":"Діаметр стовбура: 80 см. Висота: 25 м. Вік: понад 100 років. Стан: задовільний","street":"Мушака Ю.","housenumber":54,"photo1":"https://doc-10-0g-mymaps.googleusercontent.com/untrusted/hostedimage/0bakdeguh8jgmpljlouo0s7gio/gnb0r2bsrn6r9meqbv1hkpbung/1595231452750/T7JWC7chyogg85C53AUnNbKiMubo-dAb/10034506465722949273/5AF2TALqDaM6wrq7trSQwkic3IsgfnrmZNswA7a6khUr9i0AAGryjuzp68nb3eDFNZ_9KAav2bSA1xqyjRnX4EoYh9Ky0DsaYU9TMNF3SdubXwgt2_zil7Ko5xRcSe3qkn6heSZWDsoCW_A3OI3XuUlKLSrZgOwChSH2gS4Ok6GtuEpCxpNAkxpR6RI9ztk4x5F_mjFem1Iq_GmRynfbh4__ulYqcxA0B9DPBr4xemZvX-wBqKoHCHeq-IsR-PpZyahWt1ybwdx_5byI4iLsFVWvkkwiBOO49Eg?session=0&fife","photo2":"https://doc-0o-0g-mymaps.googleusercontent.com/untrusted/hostedimage/0bakdeguh8jgmpljlouo0s7gio/qh3i6aiiv0lc5qs0nj5k722cts/1595231452750/T7JWC7chyogg85C53AUnNbKiMubo-dAb/10034506465722949273/5AF2TALq2BmsWz3QT0EbGrNXC8spT8l8X9AseAB9y77Ilfm-FV4p6q8glPWT2_YTgzRlfC_gJdXA8fYziP5IzCtVjqMkTh0XK89UTvm103Gv8f__27EN1sYWKda9QY43iphUg6cS07cT7bPLx7fHxscQBnDL0UVk62e1mW4Cq5-_QXYqjsyx8g9RBpu3tBtpZuySDd22IUnETe3LSw1nj48C0bVrqdQsa85qsu5LNh-PNNlMi6yAuhnRvDRhSWJaCu-FPCu-yCiBicTXoeTmsepzaIByszGHViA?session=0&fife","x":24.0371867,"y":49.8226159,"editor_id":null,"uid":null,"editor_date":null,"cdate":"2020-08-10T15:18:52"}},{"type":"Feature","geometry":{"type":"Point","coordinates":[24.0371834,49.8225746]},"properties":{"moid":"2372649916326479835","id":9,"geom":{"type":"Point","coordinates":[24.0371834,49.8225746]},"name":"Кипарисовик горохоплідний ","lat_name":"Chamaecyparis pisifera","status":"Статус ботанічної пам’ятки природи місцевого значення надано рішенням Львівської міської ради від 09.10.1984 № 495","balance_holder":"комунальне некомерційне підприємство \"4-а міська клінічна лікарня м. Львова\"","characteristic":"Діаметр стовбура: 25 см. Висота: 18 м. Вік: понад 100 років. Стан: задовільний","street":"Мушака Ю.","housenumber":54,"photo1":"https://doc-0k-0g-mymaps.googleusercontent.com/untrusted/hostedimage/0bakdeguh8jgmpljlouo0s7gio/5vvbpm8tbfej5mbij18tor1veg/1595231452750/T7JWC7chyogg85C53AUnNbKiMubo-dAb/10034506465722949273/5AF2TALqg5cdValvhwXQ1xeGA18562aNRm_l43wTxXa0tHbXs9TD9x-hkYdszyGzEK6czmwbao6w-RApAPJcrzJ3FEo3XA6B5Leoufhmk2ZObeSbmPUPJtKZXYDPCyYDCeuwn23XlsydKNWvxbMJVfrWWNcXLsjmaTFNDyiD17M_Ks7OLcB21U0GZfPLMTwADXOy4pZE1q8C7ar769ZNkvxhzuc8rkLKDt7WczVTlhG_WZ5ee2Zh95HnyNh6oh3VdDobv0EKmsqAsy5xVUzyBIkxwmmH8XWjPUg?session=0&fife","photo2":"https://doc-0o-0g-mymaps.googleusercontent.com/untrusted/hostedimage/0bakdeguh8jgmpljlouo0s7gio/p7hf1se199b8mhfd2vac20vk8g/1595231452750/T7JWC7chyogg85C53AUnNbKiMubo-dAb/10034506465722949273/5AF2TALrj5lDgJxgcD58oFMHvq3FfDXaxjiQ8wawq9DrlQoO4CnJV7CCLizxKCOrY50jU3L6mJSnLMCkJ8dWQ5C4HAxQozCHbfYRoNztxBw1mKIyB4AuQJ5sLDkHJWmWLt9T3l1rG-GdR1jsD4weKQZ13vuAsaSjR1DM1Js_UK2DWxbL_CT34SW5G0pOO0o-l-HUy-IcVUzEVXWFtTuvCZzIjN61IdW4gCqkjTRxCZnndCHx-kkiJlz9hzv83D2r4n3n7_e1Qo_S4I5g2NcJVRg_mSMey46uqhQ?session=0&fife ","x":24.0371834,"y":49.8225746,"editor_id":null,"uid":null,"editor_date":null,"cdate":"2020-08-10T15:18:52"}},{"type":"Feature","geometry":{"type":"Point","coordinates":[24.0371976,49.8225491]},"properties":{"moid":"2372649916326479836","id":10,"geom":{"type":"Point","coordinates":[24.0371976,49.8225491]},"name":"Тис ягідний ","lat_name":"Taxus baccata","status":"Статус ботанічної пам’ятки природи місцевого значення надано рішенням Львівської міської ради від 09.10.1984 № 495","balance_holder":"комунальне некомерційне підприємство \"4-а міська клінічна лікарня м. Львова\"","characteristic":"Діаметр стовбура: 42/35/16 см. Висота: 19 м. Вік: понад 100 років. Стан: задовільний","street":"Мушака Ю.","housenumber":54,"photo1":"https://doc-08-0g-mymaps.googleusercontent.com/untrusted/hostedimage/0bakdeguh8jgmpljlouo0s7gio/59jfoaq0n9ffct349fp3spf4hg/1595231452750/T7JWC7chyogg85C53AUnNbKiMubo-dAb/10034506465722949273/5AF2TALpwTj_UVVlw6btacpqZ-3nOVa8qtW8jjMCt4Kanp36201GD6SSUdducNPbEt6zUdOJKn3Aczqvp4N1G-1Vb0Fr4uqtzLhnCiIgzlRYnTv-7oQVkT2CjBvyIo-ttr58HMEjKY4RC-ElS67ccEkCOgnvPa5_3MpX_ShJgQgza-r8YgdG9RVsViTnX7e3Vmx6NSfQCWVcvCAHuOVBUdVvqz5yj3J_Mnit3P4W_Omo-izxoTJY3qK98sMZo_hOx1dG5SFkBPMWIXcYn0G5poNHFGh_uBiq8eA?session=0&fife","photo2":null,"x":24.0371976,"y":49.8225491,"editor_id":null,"uid":null,"editor_date":null,"cdate":"2020-08-10T15:18:52"}},{"type":"Feature","geometry":{"type":"Point","coordinates":[24.0372198,49.8225564]},"properties":{"moid":"2372649916326479837","id":11,"geom":{"type":"Point","coordinates":[24.0372198,49.8225564]},"name":"Тис ягідний ","lat_name":"Taxus baccata","status":"Статус ботанічної пам’ятки природи місцевого значення надано рішенням Львівської міської ради від 09.10.1984 № 495","balance_holder":"комунальне некомерційне підприємство \"4-а міська клінічна лікарня м. Львова\"","characteristic":"Діаметр стовбура: 20/23см. Висота: 5 м. Вік: понад 100 років. Стан: задовільний","street":"Мушака Ю.","housenumber":54,"photo1":"https://doc-0o-0g-mymaps.googleusercontent.com/untrusted/hostedimage/0bakdeguh8jgmpljlouo0s7gio/gvqsd3hbkompaetp94sgc2p2ts/1595231452750/T7JWC7chyogg85C53AUnNbKiMubo-dAb/10034506465722949273/5AF2TALpvD5gDN58542LdDxSZYH-pupYM7bxFvMW58Tc7Cb43t_IzmNTsn14c1InnOymk80FdjG0r3Hc1z8SYluyHukv3oFKxNWnCm8086cafJAVw5jwMUHuT2uE4Z9B49HuatpAZbnUo8EL7ivTsbpdJa5h-mpanlwC1kFNROnXUxNwxNEvcYbopNqvHJCDldm0WzM1PXa7jQlG5Or0K5l9lwEcdSfdL5vToB4PWkYqmRPexKtHC2w1sfb0OD2WhssDERRZaEVt43gmFq5-SLUsv9N9R1dnt2A?session=0&fife","photo2":"https://doc-0c-0g-mymaps.googleusercontent.com/untrusted/hostedimage/0bakdeguh8jgmpljlouo0s7gio/7gld6f39r5lth59d5qn1jlne40/1595231452750/T7JWC7chyogg85C53AUnNbKiMubo-dAb/10034506465722949273/5AF2TALq24MsRXgvuhZ5pt59X2E4k5aknPyP3ZgAd-RqANbXD2YVONrhBW5GS7N9qOS-I9oCsf1f6tMUXz_2wJayYJqB6jI6jCA2qvT7bYxYoIzMVezjQ3GF6cDpRRgJx2mup-l97DDi_fDrUNMWihXfbj80BI29NqIRSVQDX3va-a0L-tyb-6tuxEn0m-bJ8hVByvK3Q0qDNe7lHeo3U-1PvtXfQSApE9vavLWTEFTToAOAfD-Mg41ivoGTHa0XzqHjHTo-BsV4XxeUem3XVTO-typj1KQRJqQ?session=0&fife","x":24.0372198,"y":49.8225564,"editor_id":null,"uid":null,"editor_date":null,"cdate":"2020-08-10T15:18:52"}},{"type":"Feature","geometry":{"type":"Point","coordinates":[24.0369757,49.8223403]},"properties":{"moid":"2372649916326479838","id":12,"geom":{"type":"Point","coordinates":[24.0369757,49.8223403]},"name":"Липа американська ","lat_name":"Tilia americana","status":"Статус ботанічної пам’ятки природи місцевого значення надано рішенням Львівської міської ради від 09.10.1984 № 495","balance_holder":"комунальне некомерційне підприємство \"4-а міська клінічна лікарня м. Львова\"","characteristic":"Діаметр стовбура: 110 см. Висота: 28 м. Вік: біля 100 років. Стан: задовільний","street":"Мушака Ю.","housenumber":54,"photo1":"https://doc-08-0g-mymaps.googleusercontent.com/untrusted/hostedimage/0bakdeguh8jgmpljlouo0s7gio/4f3esmki5pk9erns8ttslqta9g/1595231452750/T7JWC7chyogg85C53AUnNbKiMubo-dAb/10034506465722949273/5AF2TALr9Fgk-N0NV5RfYyFha-L06KGnehmZr7UGGxI8q54-waKkg04eBHXoYmXkgwv8UMa96jlZsSbo6-nOuxlWYVAQ2AUOfdAQwUQJn0ODReA8YLhZnzNdg87DsntsY0otipO3btR33b_QpLxfnBYswok4BR8ituBuz8eqsafh9HrVbE8lZLExW0jHFqfhUoaZw7IG-KEhGVPb45ilDipxUr22DjWoSOwhkHUXwBfVwbYEbKJpbqnG4Ao2JHOSY35kK46yZQe2BI1f5aixnlfEzuHUtuWFUGw?session=0&fife","photo2":"https://doc-08-0g-mymaps.googleusercontent.com/untrusted/hostedimage/0bakdeguh8jgmpljlouo0s7gio/psh6bssh0upubt22k4m34cb858/1595231452750/T7JWC7chyogg85C53AUnNbKiMubo-dAb/10034506465722949273/5AF2TALptoW1nbhPtXR_xswoRLLySxEw9u_VqDpQGlYML5yNd2yL29uftFczrV-C5ay3ajcudqE7LLcYfXChx7BjtK7AP3Ll5A2dKNoqotHCGh4VKsZJu5CVXFhKyvLrgsrN-hf_nQY78htFcQqXliqWngbsKG0olVqLNQ9A2sQBGmzPXOSO7X8McCT5dpcEfxywqvgGfkUD7l6h0RF54zujazvKHO0RAT0gNgF9kYH6ZJeTYIwu0WyTiDOQQGKnWeXv6R9sc8tf25RsJgjGBat_w1ArBNYcjgA?session=0&fife","x":24.0369757,"y":49.8223403,"editor_id":null,"uid":null,"editor_date":null,"cdate":"2020-08-10T15:18:52"}},{"type":"Feature","geometry":{"type":"Point","coordinates":[24.0454087,49.8362643]},"properties":{"moid":"2372649916326479839","id":13,"geom":{"type":"Point","coordinates":[24.0454087,49.8362643]},"name":"Гінкго дволопатеве ","lat_name":"Ginkgo biloba","status":"Статус ботанічної пам’ятки природи місцевого значення надано ухвалою Львівської міської ради від 21.04.2016 № 402, рішенням Львівської обласної ради від 20.03.2018 № 649 ","balance_holder":"Львівський національний університет ветеринарної медицини та біотехнологій імені С.З. Ґжицького","characteristic":"Діаметр стовбура: 73 см. Висота: 18 м. Вік: 100 років. Стан: задовільний","street":"Пекарська","housenumber":null,"photo1":"https://doc-00-0g-mymaps.googleusercontent.com/untrusted/hostedimage/0bakdeguh8jgmpljlouo0s7gio/9m45801ciovkpgmoe00tle097s/1595231452750/T7JWC7chyogg85C53AUnNbKiMubo-dAb/10034506465722949273/5AF2TALo7LcWRTJEilbbIWGzJjm6o_cdMHq3-TNxd_M2A6E_GgJDHUQzv9EE5sa4sOAMZ6aMCstQksYvjStHIo2hPcNrxEEiL8SqwnWvSBuJ6XL1MxtCAFg6odIIEIuyB35hfQWZzdcgbCRBLozIoMLtBVBB-GbRcaCmwqp6UIWSRcTV4CILrADWX7z1-_oi1aa5sYA9FWKrkzI3x8J__jeFFQAMgTjf5i_YXTiZ8L2P2fCoPwRs2tLgjww7EgaPcDvB-K-YaMdcq-IivKLsGcWIGwqdot-4U5A?session=0&fife","photo2":null,"x":24.0454087,"y":49.8362643,"editor_id":null,"uid":null,"editor_date":null,"cdate":"2020-08-10T15:18:52"}},{"type":"Feature","geometry":{"type":"Point","coordinates":[24.0568886,49.8390939]},"properties":{"moid":"2372649916326479840","id":14,"geom":{"type":"Point","coordinates":[24.0568886,49.8390939]},"name":"\"Франковий дуб\"","lat_name":null,"status":"Статус ботанічної пам’ятки природи місцевого значення надано рішенням Львівської обласної ради від 18.03.2014 № 989","balance_holder":"Кметь Р. П. (власник земельної ділянки за адресою: м. Львів,  вул. Воробкевича, 3)","characteristic":"Діаметр стовбура: 95 см. Висота: 25 м. Вік: більше 100 років. Стан: задовільний","street":"Воробкевича С.","housenumber":null,"photo1":"https://doc-0s-0g-mymaps.googleusercontent.com/untrusted/hostedimage/0bakdeguh8jgmpljlouo0s7gio/4ovi688o26v3uahoq01vvuagro/1595231452750/T7JWC7chyogg85C53AUnNbKiMubo-dAb/10034506465722949273/5AF2TALqYm1ruBb3dowJJDqLQ69HewgX2w_LIUwD2EnfLkLC0OrfoXb6gfFjjLS1m3rvHuyBAW6Xh5tZhf3A58G_x40FO4EKZQ-3goWPUGGl9nEmTf3FVDLtX6QUvOYccx2CV10l5rQLtcKNQmdmtVbga6pM4qS5XQpOV_qwPdZkWNbJrv1Su0EMzmdwQYfi5OxuR_dw77KB0CuzwB0w8NpY5tCABAE9Sp_BJl2IsQIvhuysh_YLTAVO_dUlP6XFMKR3VmO-G1F5rkumIaBbzo8fClTMCUQIk0Q?session=0&fife","photo2":null,"x":24.0568886,"y":49.8390939,"editor_id":null,"uid":null,"editor_date":null,"cdate":"2020-08-10T15:18:52"}},{"type":"Feature","geometry":{"type":"Point","coordinates":[24.0303933,49.8217375]},"properties":{"moid":"2372649916326479841","id":15,"geom":{"type":"Point","coordinates":[24.0303933,49.8217375]},"name":"Магнолія Суланжа","lat_name":"Magnolia soulangeana","status":"Статус ботанічної пам’ятки природи місцевого значення надано рішенням Львівської обласної ради від 1984 р, статус державної пам’ятки природи місцевого значення надано рішенням Львівської обласної ради від 20.03.2018 № 649","balance_holder":"КЗ ЛОР \"Львівський обласний центр еколого-натуралістичної творчості учнівської молоді\"","characteristic":"Діаметр стовбура: 25/40/25 см. Висота: 5 м. Вік: близько 100 років. Стан: незадовільний","street":"Франка І.","housenumber":133,"photo1":"https://doc-10-0g-mymaps.googleusercontent.com/untrusted/hostedimage/0bakdeguh8jgmpljlouo0s7gio/1eucia6sr2lltsqc44amn1ru84/1595231452750/T7JWC7chyogg85C53AUnNbKiMubo-dAb/10034506465722949273/5AF2TALr5brCP8oo92D3NBCYABT84uv3WCx4d0_bjCzGccPv__UES2QVAqZ28_PXmXjMkSA4DhXFXxExVeco5HqKQb4XJSjSDLYl6wBiGyMhKo-9dSIYzWTlQOdZZxtaLzng8OfdL7SVPo_gA5SrotBQvDTAyPqNZYLMMNBqJmju6ypZ2l3kkIHurT7z4eA3Odgm7Sa4dgBtmMoqAc3KzXO9tL8VTUj4ukzfl_KmxW7XaomNIY0RwEHPNlOX52E989lSK3-kuTlU58zWRzh9L0qq-pPKq7DtcMg?session=0&fife","photo2":"https://doc-0c-0g-mymaps.googleusercontent.com/untrusted/hostedimage/0bakdeguh8jgmpljlouo0s7gio/lhm10rmfqcr18devv7hd0vp9vc/1595231452750/T7JWC7chyogg85C53AUnNbKiMubo-dAb/10034506465722949273/5AF2TALp5V4m29lIzMamFncOqiymERjBiQ8LqibsLd-rgK6aozE0oFwHlsxenf5dVWhsKea8k6g3PO_IjYbQ7AlHb9OgbBy1PTiKQpzA3n8zX26cu8ow6gn6U3mBozLlOLVO73nUiu6G9HeHE8vvgdbWCLiPI3hohXjNiozNT2op1i2SFGtGsg8KQpHynAuBZrperQ9RDFgnwjjHvNLa7GCUUTHSOP7ZFSNSYYWV-llrhU2e1-jxu5V_N57daP346jSBgbQGA3XGbtrxv0p4SJpXjC7_9yPTKaA?session=0&fife","x":24.0303933,"y":49.8217375,"editor_id":null,"uid":null,"editor_date":null,"cdate":"2020-08-10T15:18:52"}},{"type":"Feature","geometry":{"type":"Point","coordinates":[24.0370763,49.8156135]},"properties":{"moid":"2372649916334868450","id":16,"geom":{"type":"Point","coordinates":[24.0370763,49.8156135]},"name":"Парикове дерево ","lat_name":"Cotinus coggygria Scop","status":"Статус ботанічної пам’ятки природи місцевого значення надано рішенням Львівської обласної ради від 09.10.1984 № 495","balance_holder":"Сихівська районна адміністрація","characteristic":"Діаметр стовбура: 32 см. Висота: 8 м. Вік: біля 100 років. Стан: задовільний","street":"Кибальчича М.","housenumber":11,"photo1":"https://doc-0s-0g-mymaps.googleusercontent.com/untrusted/hostedimage/0bakdeguh8jgmpljlouo0s7gio/637l8f6gu34djo0pbtinnj2r84/1595231452750/T7JWC7chyogg85C53AUnNbKiMubo-dAb/10034506465722949273/5AF2TALp-tLkwPEN0ny-EivCJyShmNAlb6J64q3HjdkDxJJ6_8DCGIXzaKe96eOBPA-5mRuhYgzVEIY3tfAvouia81lODubWKSp94QKcFIhB7F0h5MSpElYW-HtqwsxMwnLjxxhbnENuJMQD3oRBcjo9JvxQ3lVxP3WwGcITRBKWd69F_q9PpV8t9JWaq74ufIba2xakVXzZtqUsw9fsO4OPm3DJhkXMVsHqAQJ4GAS8vCkR2aNxbox-LQLMQ-JceH7sQ1rNrA-ASb9HMasCxoojY7lGrwj07sQ?session=0&fife","photo2":null,"x":24.0370763,"y":49.8156135,"editor_id":null,"uid":null,"editor_date":null,"cdate":"2020-08-10T15:18:52"}},{"type":"Feature","geometry":{"type":"Point","coordinates":[23.9946061,49.8235136]},"properties":{"moid":"2372649916334868451","id":17,"geom":{"type":"Point","coordinates":[23.9946061,49.8235136]},"name":"Кледрастис жовтий ","lat_name":"Cladrastis kentukea","status":"Статус ботанічної пам’ятки природи місцевого значення надано рішенням Львівської обласної ради від 09.10.1984 № 495","balance_holder":"Франківська районна адміністрація","characteristic":"Діаметр стовбура: 80 см. Висота: 16 м. Вік: біля 100 років. Стан: незадовільний","street":"Рудницького С., акад.","housenumber":12,"photo1":"https://doc-0s-0g-mymaps.googleusercontent.com/untrusted/hostedimage/0bakdeguh8jgmpljlouo0s7gio/dnsbjejuab7ohsdgq11h6g8d08/1595231452750/T7JWC7chyogg85C53AUnNbKiMubo-dAb/10034506465722949273/5AF2TALoSKw8EGpEJQ44H9YZ7hXjH8LKSkKlsT9kSE8g_uO1qeF7394mTr3SRx5WaYz--iwv--EZjdkFyptYcwxlu7x2W2zBZpXfj5Pu65Mj7sEeciR8av4DdzpyddWPYgq6PXSziHwGmPN_jL9X5xjqslNaGb25j6dKZle3eGRAPRGmN7Hnk9oYLKqGkN6zH1eqXZQa0bLi7bI8OHNt0rMn2UQfoumiMCEnNqtd8Re_T_OB2TJAJhVZ77OZF7d53ORgqoAuJkdgKmNTEAVbAEsSKHa6nYNNSNA?session=0&fife","photo2":"https://doc-0g-0g-mymaps.googleusercontent.com/untrusted/hostedimage/0bakdeguh8jgmpljlouo0s7gio/032g76pqnunqrh92dkn1as7bko/1595231452750/T7JWC7chyogg85C53AUnNbKiMubo-dAb/10034506465722949273/5AF2TALqbKu_LFluHUwZfCgNq1iXfi3_uaHDej6l-bDf0ALkXBMCaRw1ikGEl7xsW9PzXpEips9rS5Dnr1-mvHfmzQP6XA4VOoSCju67jLH_kwdgqhrE6HIWOZinyj0nxETS-5Utp7tthQiWQ2CsqkrjrWpWPQUdBmxQrpHJfup9FvC9zSegkNd_7p87tqITH8A4uV7S8XjQYsKLKCgMAJdFtuBj1ynKiBumeGNItD5mXEYNG_YhxSGQ_FQRphxcCaVJQFpvJw-iDrRJwZr3Hey2rTFnJrsxpWQ?session=0&fife","x":23.9946061,"y":49.8235136,"editor_id":null,"uid":null,"editor_date":null,"cdate":"2020-08-10T15:18:52"}},{"type":"Feature","geometry":{"type":"Point","coordinates":[23.9952182,49.8235815]},"properties":{"moid":"2372649916334868452","id":18,"geom":{"type":"Point","coordinates":[23.9952182,49.8235815]},"name":"Магнолія верболиста ","lat_name":"Magnolia salicifolia","status":"Статус ботанічної пам’ятки природи місцевого значення надано рішенням Львівської обласної ради від 09.101984 № 495","balance_holder":"Франківська районна адміністрація","characteristic":"Діаметр стовбура: 45 см. Висота: 15 м. Вік: біля 90 років. Стан: задовільний","street":"Рудницького С., акад.","housenumber":15,"photo1":"https://doc-04-0g-mymaps.googleusercontent.com/untrusted/hostedimage/0bakdeguh8jgmpljlouo0s7gio/ee6urjgok8mbesfgutrgr2f1sg/1595231452750/T7JWC7chyogg85C53AUnNbKiMubo-dAb/10034506465722949273/5AF2TALrGZmDbv2iq-SSG7RbrLHYgcBB3EC2xZoMKL1kNso5Gh0Dg5b0l1ZXLdhEK6LzgHU2x1icOC4_0asC0VPS5tF2KQxokB8b39CyDlDrxR_5au3F0XHlydz0NMFZDi322Y0SDS79KBTvhD5lSbFnvPKkadDjgrvN8JrBF_xyAbL7vXwtbYgRwpr6YaW-nqTJeT6iXqIkDpsLF3opYikHOT_Hk2pc_wQGjffQj3TB6n4vdhEBwYqxCauWc8IKHr3TguBa2dFjKjwcl0eNjXe_gWLwMIhXS5g?session=0&fife","photo2":"https://doc-08-0g-mymaps.googleusercontent.com/untrusted/hostedimage/0bakdeguh8jgmpljlouo0s7gio/r1a3lt20r3pbe44mhg3ig6d5t8/1595231452750/T7JWC7chyogg85C53AUnNbKiMubo-dAb/10034506465722949273/5AF2TALrgtTl5kqv8gBq62KWLHHTY9c8eNVPtb7Hgub5gYy2ljOKc9En8iNHWnJ_-nM-L_mK22FgXJFChaz-C4QUEXSM9AwPA_0CMbYtZTIu08z3DFG_wDz-MvaPXsPbUD6KfCj4RbDR8wXL8tocbn-ubGS42dwMrAtT99aQVcp_7_fY-HTJthzY_ZBmppa2dfXyV9tCMS0xDhaogyasIjN_L7AfGSpvPfEQ9NfGpwXzSWmP7WrRPZ_cEP8wK-QyjWzXuQuj9emtkGNahAHm2jKs-JipS0DlNwg?session=0&fife","x":23.9952182,"y":49.8235815,"editor_id":null,"uid":null,"editor_date":null,"cdate":"2020-08-10T15:18:52"}},{"type":"Feature","geometry":{"type":"Point","coordinates":[23.9956625,49.8233399]},"properties":{"moid":"2372649916334868453","id":19,"geom":{"type":"Point","coordinates":[23.9956625,49.8233399]},"name":"Сосна румелійська ","lat_name":"Pinus peuce","status":"Статус ботанічної пам’ятки природи місцевого значення надано рішенням Львівської міської ради від 09.10.1984 № 495","balance_holder":"Франківська районна адміністрація","characteristic":"Діаметр стовбура: 75 см. Висота: 21 м. Вік: 100 років. Стан: задовільний","street":"Труша І.","housenumber":19,"photo1":"https://doc-10-0g-mymaps.googleusercontent.com/untrusted/hostedimage/0bakdeguh8jgmpljlouo0s7gio/24kvilqgou5kc15elbbbqvbtpg/1595231452750/T7JWC7chyogg85C53AUnNbKiMubo-dAb/10034506465722949273/5AF2TALr0lWsFszTd2tcYBtuHbWRHpoFMe38UIMYlZwuxJOeu1GR9YzgZj3jYvGuxpCsCi6ORWnx936LKwWyTQK6pDfQ46oQmVrkTz8okzHAkXB4VQTZslPeoARjR6jlmGgnhWgx6yBcqidgPcXa0rOzVTGF27phM5vrRrYlDBPcOL9TyLNN6MbBfuReLNVUPug6Z1e2jtAHVua9lo-YWT5iu9DQbwN3JFttU_BtBPsYtDPN_pC6hUGV4UXd8WWYJ0IphWLMcTKaf_G4ZjYfaZzSA1EsqTF7cgQ?session=0&fife","photo2":null,"x":23.9956625,"y":49.8233399,"editor_id":null,"uid":null,"editor_date":null,"cdate":"2020-08-10T15:18:52"}},{"type":"Feature","geometry":{"type":"Point","coordinates":[23.9956183,49.8233386]},"properties":{"moid":"2372649916334868454","id":20,"geom":{"type":"Point","coordinates":[23.9956183,49.8233386]},"name":"Ялиця кавказька ","lat_name":"Abies nordmanniana","status":"Статус ботанічної пам’ятки природи місцевого значення надано рішенням Львівської міської ради від 09.10.1984 № 495","balance_holder":"Франківська районна адміністрація","characteristic":"Діаметр стовбура: 84 см. Висота: 22 м. Вік: 100 років. Стан: задовільний","street":"Труша І.","housenumber":19,"photo1":"https://doc-10-0g-mymaps.googleusercontent.com/untrusted/hostedimage/0bakdeguh8jgmpljlouo0s7gio/h6fasspted37aq49s0vhotg8vo/1595231452750/T7JWC7chyogg85C53AUnNbKiMubo-dAb/10034506465722949273/5AF2TALrgr6rBvIeIIzg47Xdt8tV3i0GUgpOvrAIoAO_-7zIsKRgHXB2HETJAAZd8jsBOib_E4DWcgZxs5-pyD1CYemzlLGUdZ99yDY9b3PX2HgqX3XPsroKTLg0vOsdMG_E5drhCVJdOTLVpp2MHXv1dCrhIep4JZ0VV38DZZCSSr8mCmKVF495Hv7k5f2JMEuypSGlNlkNDe4L0CCpdZ8uf0xXPGmLJWXqd9vqM7yssYcsPxpR6Ex4MYzK2uC9v14u1sRPPAqnpMff6XYMyWrQaSofPvUcfxQ?session=0&fife","photo2":null,"x":23.9956183,"y":49.8233386,"editor_id":null,"uid":null,"editor_date":null,"cdate":"2020-08-10T15:18:52"}},{"type":"Feature","geometry":{"type":"Point","coordinates":[23.9933996,49.82348]},"properties":{"moid":"2372649916334868455","id":21,"geom":{"type":"Point","coordinates":[23.9933996,49.82348]},"name":"Сосна кедрова європейська ","lat_name":"Pinus cembra","status":"Статус ботанічної пам’ятки природи місцевого значення надано рішенням Львівської міської ради від 09.10.1984 № 495","balance_holder":"Франківська районна адміністрація","characteristic":"Діаметр стовбура: 55 см. Висота: 18 м. Вік: біля 100 років. Стан: задовільний","street":"Труша І.","housenumber":24,"photo1":"https://doc-0k-0g-mymaps.googleusercontent.com/untrusted/hostedimage/0bakdeguh8jgmpljlouo0s7gio/7m1rcidvjgupm15sc0j2dm33mg/1595231452750/T7JWC7chyogg85C53AUnNbKiMubo-dAb/10034506465722949273/5AF2TALpSjY175N_KlVrKUHMUG4cqblmf4jMaVPRJHlYF0PhGgYqjSSDS-z6yr7p0SnLqJVYHmkH_UDBcbFI3LUqza7fTnb7hUDgpAXiM_NQrLiEDm0P0JP1exZKyvr218dUTf4ugphDBqJdhBmPKmPjnm3ZsDwCkQe9k86ekRQfUC9J8ivvMAl5UlFKAWoGECAP0kO97JeJMEYodt39utT_kBxvPnUV5NL9rzgpqd6s0rH4i3_KT14Q-QKhfgrPtzb0wzubMeWTuywi-M4PN5g33ffDe_9FIoA?session=0&fife","photo2":null,"x":23.9933996,"y":49.82348,"editor_id":null,"uid":null,"editor_date":null,"cdate":"2020-08-10T15:18:52"}},{"type":"Feature","geometry":{"type":"Point","coordinates":[24.015071,49.8324456]},"properties":{"moid":"2372649916334868456","id":22,"geom":{"type":"Point","coordinates":[24.015071,49.8324456]},"name":"Гледичія звичайна ","lat_name":"Gleditsia triacanthos","status":"Статус ботанічної пам’ятки природи місцевого значення надано рішенням Львівської міської ради від 09.10.1984 № 495","balance_holder":"Франківська районна адміністрація","characteristic":"Діаметр стовбура: 73 см. Висота: 18 м. Вік: більше 80 років. Стан: незадовільний","street":"Котляревського І.","housenumber":15,"photo1":"https://doc-00-0g-mymaps.googleusercontent.com/untrusted/hostedimage/0bakdeguh8jgmpljlouo0s7gio/juamko026cci0rk4lku1vbfeu4/1595231452750/T7JWC7chyogg85C53AUnNbKiMubo-dAb/10034506465722949273/5AF2TALrcpTXnoM77dgT_yWAs68ukFw5NCCGNOYD2f58LUzXqf5cgvpUGHD9-eI_T_g1bZ6ohLezBNH8YtHO6eK_wcpgcNA-HhBjONfg_HKKA2naJD3EjR6bc4NX956duoXalcPeef_mtWovtmjYkjUHauz8vAJcyYLm5luz-Yk1XKsY_1QZCY1URRbIt7e43WQE69yIU_h7OHbKrQprxzGIwzPcKy6wuIWCswh2l33gJNgJME2BL-2KN_-t2ZqOi6YYiSOzrCfBObFOGZUBlx8SNUDGZ6I3DKA?session=0&fife","photo2":"https://doc-0s-0g-mymaps.googleusercontent.com/untrusted/hostedimage/0bakdeguh8jgmpljlouo0s7gio/5g0ka7idjhgp58kj3to55m6og4/1595231452750/T7JWC7chyogg85C53AUnNbKiMubo-dAb/10034506465722949273/5AF2TALovN6m-cIXWrben1lYZab_OkousW4IHSafPCCG4Dw5Ybz8wE-9Lr8b6qVRMatweucY0P0QK4zdlUi3ze9-Y6jvVIAnYLbQw4hMEESEO5PyaNx1i1NHnavhaaAU2NKWaNgKnDjvAQnLACy5RvnXhqDfMGDOdrJ9iWW5cjVGLWPuo1AqxWsxlqWBDkvvx1_4dR7V6_ke15NcR6pP-nOQJUssatXdXgEq_X_uaK_4epGnqLAnmYWS2vBQHEOaVzS6vG2lT3apGVK-sPDUt9Sdj9kY0e0btJw?session=0&fife","x":24.015071,"y":49.8324456,"editor_id":null,"uid":null,"editor_date":null,"cdate":"2020-08-10T15:18:52"}},{"type":"Feature","geometry":{"type":"Point","coordinates":[23.9888255,49.8289836]},"properties":{"moid":"2372649916334868457","id":23,"geom":{"type":"Point","coordinates":[23.9888255,49.8289836]},"name":"Платан ","lat_name":"Platanus","status":"Статус ботанічної пам’ятки природи місцевого значення надано рішенням Львівської міської ради від 09.10.1984 № 495","balance_holder":"Франківська районна адміністрація","characteristic":"Діаметр стовбура: 137 см. Висота: 30 м. Вік: більше 100 років. Стан: задовільний","street":"Копистинського Т.","housenumber":9,"photo1":"https://doc-10-0g-mymaps.googleusercontent.com/untrusted/hostedimage/0bakdeguh8jgmpljlouo0s7gio/q1k24u941drab7q320cu5hljrk/1595231452750/T7JWC7chyogg85C53AUnNbKiMubo-dAb/10034506465722949273/5AF2TALpytzILXJotXL353kSwKBQS7MIxjWuqwLoafJjjIuuiTBJTZFxkLF_4AadMqW7dD2YFwnqpaFcYtdPqSX0TTgfANspahK40Q9yB5fOsT7N9fqPdkIfZMIHwfkdmPA-OH_Z-x8I6TiASf940ex3Gc4X64RI1zNIe4c5s1xcejmPhBv9QEa-_Htx34ru5Et5-FBvZEubNM5sOqHUM6SXSIMaS1lcqkIuTPxmoq4KwGn8avj1DbeFSQJKdvVAOa8p8_tlkh0_I1PVbA3v00H-ryeuJ09xOqg?session=0&fife","photo2":" https://doc-08-0g-mymaps.googleusercontent.com/untrusted/hostedimage/0bakdeguh8jgmpljlouo0s7gio/1h3mmqot0mtccfliqc06e6r1r8/1595231452750/T7JWC7chyogg85C53AUnNbKiMubo-dAb/10034506465722949273/5AF2TALr0mMr7yB0Sg_IWlJs4KoQ6UT81nY6x_fiiXvx_OwZJpvyfbnxyFshq-lj3tpfxYXH0O7BZFxoJJCqGrRW-2Col_J44cSsc-Gqn5xL4wtMbz7mOBoKWZ7j-ESamqY62gf4dZr7sNSPlAt7gFflYDAJFdr91cpNltO5lcSZ0NDFO_MwVSEe7EV_21DYCm-EiayDnQRgwbvBYcvmldeUYC5XWKRfnGJvyygHpPL9oRek2IriICOWlUlEVQo7VKm-7uFAAPufTRcZ_qZvcf8ciumIMRxlaiA?session=0&fife","x":23.9888255,"y":49.8289836,"editor_id":null,"uid":null,"editor_date":null,"cdate":"2020-08-10T15:18:52"}},{"type":"Feature","geometry":{"type":"Point","coordinates":[23.998092,49.8276244]},"properties":{"moid":"2372649916334868458","id":24,"geom":{"type":"Point","coordinates":[23.998092,49.8276244]},"name":"Магнолія Суланжа ","lat_name":"Magnolia soulangeana","status":"Статус ботанічної пам’ятки природи місцевого значення надано рішенням Львівської міської ради від 09.10.1984 № 495","balance_holder":"Франківська районна адміністрація","characteristic":"Діаметр стовбура: 15 см. Висота: 4 м. Вік: більше 80 років. Стан: задовільний","street":"Коновальця Є.","housenumber":94,"photo1":"https://doc-04-0g-mymaps.googleusercontent.com/untrusted/hostedimage/0bakdeguh8jgmpljlouo0s7gio/hp3dhnq6qv79r5nfq07lvo46jo/1595231452750/T7JWC7chyogg85C53AUnNbKiMubo-dAb/10034506465722949273/5AF2TALqOBHO1pFzIYtb4mzovQCOlWxo09-z7Nx4fiQNGuq-xnWc-yTq3LXRq957Obxosmia1Pbc0a44yStuOTQ_Eyke9g4sjXgqTLC2If7_l4cyxzlK6-XfujFusKFhqiechuBXIu9P5mPfcSlI922EdhWyZdnai6BrJ-6mFS5Y39-yAT5YQ2NJZLbWW82Z88MovZzuQ8ZCDyPdXhmxlli6W_81lI5PGCfYjih5nC_g0Ib7Ua7r1KnjPy7Ufpz26WgLBT3VSvsHCnao9U3iU8mNLKwLwwwCAyg?session=0&fife","photo2":"https://doc-0s-0g-mymaps.googleusercontent.com/untrusted/hostedimage/0bakdeguh8jgmpljlouo0s7gio/qgl737uqv7khr0ra5ag7skrt8o/1595231452750/T7JWC7chyogg85C53AUnNbKiMubo-dAb/10034506465722949273/5AF2TALojehGxw3oycNXQcvpv9kFvVg68ZbxcenERQbLwCyXbpwktIDf0reQ4NBRcVaLyfq78UucYmvQSDq2Oppx2Mr04rv4zRs140UB7pBVLd-TF2KtcPOzux2qS_JZfoWAaMwc-HUb96JYxy2dmUA1xeiveA4JGgNCsTFLp3cDBDmkTvWG3ylYcb9Ix-K2Bff7ySLxB9iHBe6LhtyclyY7_9oPhstnC0HKd1MD5xTO92jXuZBU18YTJ06WTj3_tsScfSrlMEa-uSjB96GiJX6xVezXjAECHQg?session=0&fife","x":23.998092,"y":49.8276244,"editor_id":null,"uid":null,"editor_date":null,"cdate":"2020-08-10T15:18:52"}},{"type":"Feature","geometry":{"type":"Point","coordinates":[23.9977058,49.8219003]},"properties":{"moid":"2372649916334868459","id":25,"geom":{"type":"Point","coordinates":[23.9977058,49.8219003]},"name":"Магнолія кобус ","lat_name":"Magnolia kobus","status":"Статус ботанічної пам’ятки природи місцевого значення надано рішенням Львівської обласної ради від 09.10.1984 № 495","balance_holder":"приватна власність","characteristic":"Діаметр стовбура: 35 см. Висота: 15 м. Вік: більше 80 років. Стан: задовільний","street":"Рудницького С., акад.","housenumber":25,"photo1":"https://doc-0s-0g-mymaps.googleusercontent.com/untrusted/hostedimage/0bakdeguh8jgmpljlouo0s7gio/f4i56htt2aqefntg0fbv407nqg/1595231452750/T7JWC7chyogg85C53AUnNbKiMubo-dAb/10034506465722949273/5AF2TALq7XpRgL70arb7aAxU2cgyYHUISGx7fHr1ncugGJwHDlPNEksvKR9S8A7wyPknhptx0PNYcLKwLsKbv0DDpfv64wuFeHiRspkKICZa_6mR4ra571XExGN8BnSYzYxMMDABeaHS5cPY7cLudJpmaEDYKUN4_-6DlrwjVPYqphuL8f5eForPhLsHc0RbCnQvXUk5b6XmpddAZMJqsrNvmVptiwbc_LmxhggHwbvDFg_3BIxcigGJC9xa_Y_jmuBo4cYa3l-xEVjy5Om-YDbjkDC98ioziHg?session=0&fife","photo2":null,"x":23.9977058,"y":49.8219003,"editor_id":null,"uid":null,"editor_date":null,"cdate":"2020-08-10T15:18:52"}},{"type":"Feature","geometry":{"type":"Point","coordinates":[23.9977501,49.821883]},"properties":{"moid":"2372649916334868460","id":26,"geom":{"type":"Point","coordinates":[23.9977501,49.821883]},"name":"Магнолія Суланжа ","lat_name":"Magnolia soulangeana","status":"Статус ботанічної пам’ятки природи місцевого значення надано рішенням Львівської міської ради від 09.10.1984 № 495","balance_holder":"приватна власність","characteristic":"Діаметр стовбура: 18 см. Висота: 6 м. Вік: більше 80 років. Стан: задовільний","street":"Рудницького С., акад.","housenumber":25,"photo1":"https://doc-0c-0g-mymaps.googleusercontent.com/untrusted/hostedimage/0bakdeguh8jgmpljlouo0s7gio/qboa9qdmk4qdq1r9693v5cffig/1595231452750/T7JWC7chyogg85C53AUnNbKiMubo-dAb/10034506465722949273/5AF2TALrl6rfLW6VG1GyCPLgqos_GAhiCFYLrbfjt1MLEn0o1V-ojuqVdWIjRXRbP7NrdU0unIFW7tnI8AiXpwAyk8ufS1fX1qEmIfz7_zk-co_lxi-3R5ZrR-6cMEh0UAwLr6Bqs-3fBFGJZjLNXt8ghQDYkdcr5J3WzZ54-ZkeOg1PklyuuFC6JwcCVUs5y025VZapj2HsL06msdSDRbD7qAd0z4HyKRZ-gPQyWOtYYzueAapuWqU3iZwtn0bBLDNHhb64WWnIEB-CZA2d9RDXavZFAahWg7A?session=0&fife","photo2":null,"x":23.9977501,"y":49.821883,"editor_id":null,"uid":null,"editor_date":null,"cdate":"2020-08-10T15:18:52"}},{"type":"Feature","geometry":{"type":"Point","coordinates":[24.0165415,49.8214578]},"properties":{"moid":"2372649916334868461","id":27,"geom":{"type":"Point","coordinates":[24.0165415,49.8214578]},"name":"Група вікових дубів решток природних дубових лісів","lat_name":null,"status":"Статус ботанічної пам’ятки природи місцевого значення надано рішенням Львівської міської ради від 09.10.1984 № 495","balance_holder":"ЛКП \"Зелений Львів\"","characteristic":"Діаметр стовбура: 123 см. Висота: 30 м. Вік: понад 200 років. Стан: незадовільний","street":"Бойківська-Сахарова А., акад.","housenumber":null,"photo1":"https://doc-0g-0g-mymaps.googleusercontent.com/untrusted/hostedimage/0bakdeguh8jgmpljlouo0s7gio/e8j5j7chps0jluf8f04818asck/1595231452750/T7JWC7chyogg85C53AUnNbKiMubo-dAb/10034506465722949273/5AF2TALoTkNYID-eoLXUrhuPDfK-r5B7qdGztMmIMF16ffAMD6cLdMiBsHrSEIp92lMmymwru75-x9OAbLgM2vSZZ4BoKbI8uRsWrf_1xiAhTA1fF62RYhdeLe2gHwE-rhF0I1QG_alYHQwU7g1Ie6JJPHwA0cgJa_jh5ggX4KltSlafZwZPG1coeauHwlf3_Bmb_dEC9q025-3QyWOJ_SkJseVMZgZSj35Xl04g3CNXhYL7cdzRLWx1XBzu8e4cQdWDeoYE20IyvPVhkqAgaUKSKB7oh9xXDLw?session=0&fife","photo2":null,"x":24.0165415,"y":49.8214578,"editor_id":null,"uid":null,"editor_date":null,"cdate":"2020-08-10T15:18:52"}},{"type":"Feature","geometry":{"type":"Point","coordinates":[24.0165199,49.8214769]},"properties":{"moid":"2372649916334868462","id":28,"geom":{"type":"Point","coordinates":[24.0165199,49.8214769]},"name":"Група вікових дубів решток природних дубових лісів","lat_name":null,"status":"Статус ботанічної пам’ятки природи місцевого значення надано рішенням Львівської міської ради від 09.10.1984 № 495","balance_holder":"ЛКП \"Зелений Львів\"","characteristic":"Діаметр стовбура: 96 см. Висота: 30 м. Вік: понад 200 років. Стан: незадовільний","street":"Бойківська-Сахарова А., акад.","housenumber":null,"photo1":"https://doc-0s-0g-mymaps.googleusercontent.com/untrusted/hostedimage/0bakdeguh8jgmpljlouo0s7gio/jlvt0if9jvorg245vlnse5eleo/1595231452750/T7JWC7chyogg85C53AUnNbKiMubo-dAb/10034506465722949273/5AF2TALrDnpl9Ym-2WR_NmQzvg-6ocoMCpz3mudLh5OdPTHVXQD23uJf6ND8KHN2tneUVzbNuMmIyePWuUPg33r-MvfBV6rh2vcd7jyAiE__5_IszIFqzDZCK86DKrh5b38WVLCdKxELuT6x6Ceq7Z_qUSPvM_OURAjrBRP0BNkId17G4LwPkbDcLJbn_HizN-cIIJ-dB1JYetANS3pldcvNmZCyZRxT3U9CWUSaC8Zyx4891Ri9hN7IaBtl6XcypcI_SiaUcLncPH-Sio63csZG1KDSuDZR33Q?session=0&fife","photo2":null,"x":24.0165199,"y":49.8214769,"editor_id":null,"uid":null,"editor_date":null,"cdate":"2020-08-10T15:18:52"}},{"type":"Feature","geometry":{"type":"Point","coordinates":[24.0165025,49.8214967]},"properties":{"moid":"2372649916343257071","id":29,"geom":{"type":"Point","coordinates":[24.0165025,49.8214967]},"name":"Група вікових дубів решток природних дубових лісів","lat_name":null,"status":"Статус ботанічної пам’ятки природи місцевого значення надано рішенням Львівської міської ради від 09.10.1984 № 495","balance_holder":"ЛКП \"Зелений Львів\"","characteristic":"Діаметр стовбура: 84 см. Висота: 30 м. Вік: понад 200 років. Стан: незадовільний","street":"Бойківська-Сахарова А., акад.","housenumber":null,"photo1":"https://doc-0o-0g-mymaps.googleusercontent.com/untrusted/hostedimage/0bakdeguh8jgmpljlouo0s7gio/raqoqlvrdqp1opd5ov3f34ba9o/1595231452750/T7JWC7chyogg85C53AUnNbKiMubo-dAb/10034506465722949273/5AF2TALpn_8rlR5iwweK2o1ZiiMojaIw29H0O3yseNOswtgheGC3oqIo3SzmZeVJrG9EqwUfCvIRdp8l6Yvm5W8faO1LNco3SeLInNT4iffge6bzJEU_R_P7agm1Bi7yq94mcjxAPzdkh8R791uCKOykvh2iyAJUOLqQil88OCfK7khDEv1JgTh6tPJX33YdHaSw5hIGuItJ45bP-d9mAVpp_l2E5K1H-JaCXjvyfloh6ebDHSRmafNb0SKpd9tmxh-iLHIETxSMQy5iiUno1vtSAvk6KSxXLrw?session=0&fife","photo2":null,"x":24.0165025,"y":49.8214967,"editor_id":null,"uid":null,"editor_date":null,"cdate":"2020-08-10T15:18:52"}},{"type":"Feature","geometry":{"type":"Point","coordinates":[24.0162007,49.8217312]},"properties":{"moid":"2372649916343257072","id":30,"geom":{"type":"Point","coordinates":[24.0162007,49.8217312]},"name":"Група вікових дубів решток природних дубових лісів","lat_name":null,"status":"Статус ботанічної пам’ятки природи місцевого значення надано рішенням Львівської міської ради від 09.10.1984 № 495","balance_holder":"ЛКП \"Зелений Львів\"","characteristic":"Діаметр стовбура: 115 см. Висота: 30 м. Вік: понад 200 років. Стан: задовільний","street":"Бойківська-Сахарова А., акад.","housenumber":null,"photo1":"https://doc-08-0g-mymaps.googleusercontent.com/untrusted/hostedimage/0bakdeguh8jgmpljlouo0s7gio/g98gmbi6pi0g957v073bbflceo/1595231452750/T7JWC7chyogg85C53AUnNbKiMubo-dAb/10034506465722949273/5AF2TALrTMjgFRqb-tNNqoAuaDi4RY5pfW3xoReY74QEjz3dAeiYDfI0u3wuDWfEEHQ3j7taEK2cs_d-W0MSO-u6V4XP5lrifvKWO-COuNPlzlEBEDQkSVSET4RkmVSfc9ojWzk6B0RoyYlxVAMu2O7K1Dz2GMcFCsBmAuldqGcvj8z0BJKZRDLcS4QhBzkMlS7CEf8uo0xNfNs-cB-YQw3h0VZKTX-EqKfZoHJzkBvQaaT0SHQhY6pmdKixlMH5-o5vDkLGkrtPRcbxV0Jqzqz6aT9pQj8KA3w?session=0&fife","photo2":null,"x":24.0162007,"y":49.8217312,"editor_id":null,"uid":null,"editor_date":null,"cdate":"2020-08-10T15:18:52"}},{"type":"Feature","geometry":{"type":"Point","coordinates":[24.0161954,49.8217814]},"properties":{"moid":"2372649916343257073","id":31,"geom":{"type":"Point","coordinates":[24.0161954,49.8217814]},"name":"Група вікових дубів решток природних дубових лісів","lat_name":null,"status":"Статус ботанічної пам’ятки природи місцевого значення надано рішенням Львівської міської ради від 09.10.1984 № 495","balance_holder":"ЛКП \"Зелений Львів\"","characteristic":"Діаметр стовбура: 110 см. Висота: 30 м. Вік: понад 200 років. Стан: незадовільний","street":"Бойківська-Сахарова А., акад.","housenumber":null,"photo1":null,"photo2":null,"x":24.0161954,"y":49.8217814,"editor_id":null,"uid":null,"editor_date":null,"cdate":"2020-08-10T15:18:52"}}]}
